ONEWEB-0331             
1 49198U 21083N   25178.34948947  .00000124  00000+0  28073-3 0  9995
2 49198  87.9127  45.9581 0001587  71.1268 289.0036 13.18789032183243
ONEWEB-0333             
1 49199U 21083P   25178.53346389 -.00000290  00000+0 -82832-3 0  9998
2 49199  87.8962  30.7424 0001822  87.0466 273.0871 13.13469135184353
ONEWEB-0334             
1 49200U 21083Q   25178.22196888  .00000002  00000+0 -26945-4 0  9998
2 49200  87.9257 345.1730 0002676 110.1156 250.0265 13.20772223189933
ONEWEB-0335             
1 49201U 21083R   25177.99515584  .00000119  00000+0  29176-3 0  9996
2 49201  87.8960  30.8383 0001591  81.5645 278.5664 13.13468864184292
ONEWEB-0336             
1 49202U 21083S   25178.34725299  .00000389  00000+0  10296-2 0  9994
2 49202  87.8960  30.7608 0001691  87.5017 272.6305 13.13470493184335
ONEWEB-0337             
1 49203U 21083T   25178.58580876  .00000264  00000+0  68783-3 0  9998
2 49203  87.8965  30.7128 0001795  78.6642 281.4688 13.13469197184362
ONEWEB-0338             
1 49204U 21083U   25178.42399123  .00000085  00000+0  17805-3 0  9995
2 49204  87.9266 345.1233 0002098  98.9176 261.2195 13.20772322189989
ONEWEB-0339             
1 49205U 21083V   25178.51822835  .00000115  00000+0  27950-3 0  9993
2 49205  87.8960  30.7131 0001909  82.7738 277.3608 13.13469522184337
